STARLINK-32451          
1 61857U 24202N   26067.55041006  .00001201  00000+0  53177-4 0  9999
2 61857  43.0033 244.4046 0001791 276.2147  83.8500 15.27578742 75164
FLOCK 4G-23             
1 62647U 25009AQ  26068.71663397  .00012440  00000+0  46816-3 0  9993
2 62647  97.3979 150.9478 0000905   7.2707 352.8545 15.27262579 63728
